{
  "type": "FeatureCollection",
  "features": [
    {
      "type": "Feature",
      "properties": {
        "norad_id": 30013,
        "name": "FENGYUN 1C DEB",
        "group": "fengyun-1c-debris",
        "lat": -67.80271538097041,
        "lon": 167.47191881495667,
        "alt_km": 1013.8962732844684,
        "timestamp": "2025-12-18T08:58:43.684774+00:00",
        "meta_object_name": "FENGYUN 1C DEB",
        "meta_object_id": "1999-025MN",
        "meta_epoch": "2025-12-17T20:30:01.807776",
        "meta_mean_motion": 13.878287,
        "meta_eccentricity": 0.01280729,
        "meta_inclination": 99.5798,
        "meta_ra_of_asc_node": 11.3876,
        "meta_arg_of_pericenter": 30.462,
        "meta_mean_anomaly": 144.0646,
        "meta_ephemeris_type": 0,
        "meta_classification_type": "U",
        "meta_norad_cat_id": 30013,
        "meta_element_set_no": 999,
        "meta_rev_at_epoch": 95752,
        "meta_bstar": 0.00023263426,
        "meta_mean_motion_dot": 2.48e-06,
        "meta_mean_motion_ddot": 0,
        "tle_line1": "1 30013U 99025MN  25351.85418759  .00000248  00000+0  23263-3 0  9997",
        "tle_line2": "2 30013  99.5798  11.3876 0128072  30.4620 144.0646 13.87828700957524"
      },
      "geometry": {
        "type": "Point",
        "coordinates": [
          167.47191881495667,
          -67.80271538097041
        ]
      }
    },
    {
      "type": "Feature",
      "properties": {
        "norad_id": 30015,
        "name": "FENGYUN 1C DEB",
        "group": "fengyun-1c-debris",
        "lat": -73.00687579431676,
        "lon": 143.45824612576163,
        "alt_km": 819.4037157163611,
        "timestamp": "2025-12-18T08:58:43.684784+00:00",
        "meta_object_name": "FENGYUN 1C DEB",
        "meta_object_id": "1999-025MQ",
        "meta_epoch": "2025-12-17T23:29:46.468320",
        "meta_mean_motion": 14.3081426,
        "meta_eccentricity": 0.00386417,
        "meta_inclination": 99.2283,
        "meta_ra_of_asc_node": 355.1792,
        "meta_arg_of_pericenter": 110.0321,
        "meta_mean_anomaly": 271.3369,
        "meta_ephemeris_type": 0,
        "meta_classification_type": "U",
        "meta_norad_cat_id": 30015,
        "meta_element_set_no": 999,
        "meta_rev_at_epoch": 98248,
        "meta_bstar": 0.00046325344,
        "meta_mean_motion_dot": 1.175e-05,
        "meta_mean_motion_ddot": 0,
        "tle_line1": "1 30015U 99025MQ  25351.97901005  .00001175  00000+0  46325-3 0  9997",
        "tle_line2": "2 30015  99.2283 355.1792 0038641 110.0321 271.3369 14.30814260982487"
      },
      "geometry": {
        "type": "Point",
        "coordinates": [
          143.45824612576163,
          -73.00687579431676
        ]
      }
    },
    {
      "type": "Feature",
      "properties": {
        "norad_id": 30016,
        "name": "FENGYUN 1C DEB",
        "group": "fengyun-1c-debris",
        "lat": -81.08407520040782,
        "lon": 92.95333600385601,
        "alt_km": 653.6410345384393,
        "timestamp": "2025-12-18T08:58:43.684794+00:00",
        "meta_object_name": "FENGYUN 1C DEB",
        "meta_object_id": "1999-025MR",
        "meta_epoch": "2025-12-17T17:24:16.104960",
        "meta_mean_motion": 14.78639008,
        "meta_eccentricity": 0.00465052,
        "meta_inclination": 98.9048,
        "meta_ra_of_asc_node": 4.215,
        "meta_arg_of_pericenter": 25.5903,
        "meta_mean_anomaly": 32.9125,
        "meta_ephemeris_type": 0,
        "meta_classification_type": "U",
        "meta_norad_cat_id": 30016,
        "meta_element_set_no": 999,
        "meta_rev_at_epoch": 99527,
        "meta_bstar": 0.0014243422,
        "meta_mean_motion_dot": 0.00010573,
        "meta_mean_motion_ddot": 0,
        "tle_line1": "1 30016U 99025MR  25351.72518640  .00010573  00000+0  14243-2 0  9995",
        "tle_line2": "2 30016  98.9048   4.2150 0046505  25.5903  32.9125 14.78639008995276"
      },
      "geometry": {
        "type": "Point",
        "coordinates": [
          92.95333600385601,
          -81.08407520040782
        ]
      }
    },
    {
      "type": "Feature",
      "properties": {
        "norad_id": 30017,
        "name": "FENGYUN 1C DEB",
        "group": "fengyun-1c-debris",
        "lat": 55.00436025190276,
        "lon": 24.577819779814902,
        "alt_km": 712.0414884091952,
        "timestamp": "2025-12-18T08:58:43.684804+00:00",
        "meta_object_name": "FENGYUN 1C DEB",
        "meta_object_id": "1999-025MS",
        "meta_epoch": "2025-12-17T16:16:54.940224",
        "meta_mean_motion": 14.61207516,
        "meta_eccentricity": 0.02177218,
        "meta_inclination": 98.7542,
        "meta_ra_of_asc_node": 36.5566,
        "meta_arg_of_pericenter": 159.8955,
        "meta_mean_anomaly": 201.0989,
        "meta_ephemeris_type": 0,
        "meta_classification_type": "U",
        "meta_norad_cat_id": 30017,
        "meta_element_set_no": 999,
        "meta_rev_at_epoch": 516,
        "meta_bstar": 0.00013349595,
        "meta_mean_motion_dot": 8.54e-06,
        "meta_mean_motion_ddot": 0,
        "tle_line1": "1 30017U 99025MS  25351.67841366  .00000854  00000+0  13350-3 0  9994",
        "tle_line2": "2 30017  98.7542  36.5566 0217721 159.8955 201.0989 14.61207516  5165"
      },
      "geometry": {
        "type": "Point",
        "coordinates": [
          24.577819779814902,
          55.00436025190276
        ]
      }
    },
    {
      "type": "Feature",
      "properties": {
        "norad_id": 30018,
        "name": "FENGYUN 1C DEB",
        "group": "fengyun-1c-debris",
        "lat": -24.3463286823766,
        "lon": 79.45432079265183,
        "alt_km": 732.0937760817142,
        "timestamp": "2025-12-18T08:58:43.684814+00:00",
        "meta_object_name": "FENGYUN 1C DEB",
        "meta_object_id": "1999-025MT",
        "meta_epoch": "2025-12-17T18:59:50.339040",
        "meta_mean_motion": 14.73237405,
        "meta_eccentricity": 0.01168332,
        "meta_inclination": 98.7565,
        "meta_ra_of_asc_node": 74.8269,
        "meta_arg_of_pericenter": 179.6414,
        "meta_mean_anomaly": 307.4199,
        "meta_ephemeris_type": 0,
        "meta_classification_type": "U",
        "meta_norad_cat_id": 30018,
        "meta_element_set_no": 999,
        "meta_rev_at_epoch": 511,
        "meta_bstar": 0.00063966546,
        "meta_mean_motion_dot": 4.542e-05,
        "meta_mean_motion_ddot": 0,
        "tle_line1": "1 30018U 99025MT  25351.79155485  .00004542  00000+0  63967-3 0  9995",
        "tle_line2": "2 30018  98.7565  74.8269 0116833 179.6414 307.4199 14.73237405  5110"
      },
      "geometry": {
        "type": "Point",
        "coordinates": [
          79.45432079265183,
          -24.3463286823766
        ]
      }
    },
    {
      "type": "Feature",
      "properties": {
        "norad_id": 30020,
        "name": "FENGYUN 1C DEB",
        "group": "fengyun-1c-debris",
        "lat": 58.04742722177944,
        "lon": -169.49655993149418,
        "alt_km": 816.3146513394049,
        "timestamp": "2025-12-18T08:58:43.684825+00:00",
        "meta_object_name": "FENGYUN 1C DEB",
        "meta_object_id": "1999-025MV",
        "meta_epoch": "2025-12-17T14:09:53.504640",
        "meta_mean_motion": 14.04474985,
        "meta_eccentricity": 0.01840429,
        "meta_inclination": 98.847,
        "meta_ra_of_asc_node": 355.2792,
        "meta_arg_of_pericenter": 56.9721,
        "meta_mean_anomaly": 60.5207,
        "meta_ephemeris_type": 0,
        "meta_classification_type": "U",
        "meta_norad_cat_id": 30020,
        "meta_element_set_no": 999,
        "meta_rev_at_epoch": 96726,
        "meta_bstar": 0.00035445134,
        "meta_mean_motion_dot": 6.16e-06,
        "meta_mean_motion_ddot": 0,
        "tle_line1": "1 30020U 99025MV  25351.59020260  .00000616  00000+0  35445-3 0  9996",
        "tle_line2": "2 30020  98.8470 355.2792 0184042  56.9721  60.5207 14.04474985967261"
      },
      "geometry": {
        "type": "Point",
        "coordinates": [
          -169.49655993149418,
          58.04742722177944
        ]
      }
    },
    {
      "type": "Feature",
      "properties": {
        "norad_id": 30021,
        "name": "FENGYUN 1C DEB",
        "group": "fengyun-1c-debris",
        "lat": -68.56671850094116,
        "lon": 7.095514351505505,
        "alt_km": 834.671461595216,
        "timestamp": "2025-12-18T08:58:43.684835+00:00",
        "meta_object_name": "FENGYUN 1C DEB",
        "meta_object_id": "1999-025MW",
        "meta_epoch": "2025-12-17T21:37:59.092896",
        "meta_mean_motion": 14.0489496,
        "meta_eccentricity": 0.00718095,
        "meta_inclination": 98.8356,
        "meta_ra_of_asc_node": 343.2932,
        "meta_arg_of_pericenter": 272.4723,
        "meta_mean_anomaly": 147.3061,
        "meta_ephemeris_type": 0,
        "meta_classification_type": "U",
        "meta_norad_cat_id": 30021,
        "meta_element_set_no": 999,
        "meta_rev_at_epoch": 97004,
        "meta_bstar": 7.3494483e-05,
        "meta_mean_motion_dot": 7.7e-07,
        "meta_mean_motion_ddot": 0,
        "tle_line1": "1 30021U 99025MW  25351.90137839  .00000077  00000+0  73494-4 0  9991",
        "tle_line2": "2 30021  98.8356 343.2932 0071809 272.4723 147.3061 14.04894960970042"
      },
      "geometry": {
        "type": "Point",
        "coordinates": [
          7.095514351505505,
          -68.56671850094116
        ]
      }
    }
  ]
}